TYVAK-0130              
1 48606U 21041BF  26068.48452211  .00008857  00000+0  35198-3 0  9997
2 48606  52.9967 128.6030 0008953 215.1647 144.8760 15.26049141265157
STARLINK-35879          
1 66960U 25288B   26068.27847035  .00033356  00000+0  12165-2 0  9996
2 66960  43.0038  25.8540 0001724 255.1565 104.9096 15.27572678 15223
